[{"OBJECT_NAME":"STARLINK-6156","OBJECT_ID":"2023-061A","EPOCH":"2026-03-09T22:00:01.999584","MEAN_MOTION":15.1289423,"ECCENTRICITY":0.00016724,"INCLINATION":42.9997,"RA_OF_ASC_NODE":196.0642,"ARG_OF_PERICENTER":260.4198,"MEAN_ANOMALY":359.8714,"EPHEMERIS_TYPE":0,"CLASSIFICATION_TYPE":"U","NORAD_CAT_ID":56374,"ELEMENT_SET_NO":999,"REV_AT_EPOCH":557,"BSTAR":0.004197719,"MEAN_MOTION_DOT":0.0007578,"MEAN_MOTION_DDOT":0},{"OBJECT_NAME":"THORAD AGENA D DEB","OBJECT_ID":"1969-082Z","EPOCH":"2026-03-09T07:18:45.871776","MEAN_MOTION":15.11837328,"ECCENTRICITY":0.00204275,"INCLINATION":70.0067,"RA_OF_ASC_NODE":36.7332,"ARG_OF_PERICENTER":221.6463,"MEAN_ANOMALY":138.3149,"EPHEMERIS_TYPE":0,"CLASSIFICATION_TYPE":"U","NORAD_CAT_ID":4157,"ELEMENT_SET_NO":999,"REV_AT_EPOCH":97934,"BSTAR":0.0014373482,"MEAN_MOTION_DOT":0.00024719,"MEAN_MOTION_DDOT":0}]
